NORAD_CAT_ID,OBJECT_NAME,OBJECT_TYPE,EPOCH,MEAN_MOTION,ECCENTRICITY,INCLINATION,RA_OF_ASC_NODE,ARG_OF_PERICENTER,MEAN_ANOMALY,BSTAR,MEAN_MOTION_DOT,MEAN_MOTION_DDOT,TLE_LINE0,TLE_LINE1,TLE_LINE2,SEMIMAJOR_AXIS,PERIOD,APOGEE,PERIGEE,DECAYED
55765.0,STARLINK-5595,PAYLOAD,2023-05-31 10:42:54,15.6991731,0.0003377,69.9987,265.8494,265.284,94.797,1.6043e-05,1.716e-05,0.0,0 STARLINK-5595,1 55765U 23028AA  23151.44645885  .00001716  00000-0  16043-4 0  9992,2 55765  69.9987 265.8494 0003377 265.2840  94.7970 15.69917310 14589,6737.271,91.725,361.411,356.86,0.0
55765.0,STARLINK-5595,PAYLOAD,2023-05-31 15:18:08,15.69940727,0.0003081,69.9986,265.3127,259.8386,100.2463,-1.8937e-05,-2.49e-05,0.0,0 STARLINK-5595,1 55765U 23028AA  23151.63760179 -.00002490  00000-0 -18937-4 0  9993,2 55765  69.9986 265.3127 0003081 259.8386 100.2463 15.69940727 14614,6737.204,91.723,361.144,356.993,0.0
55765.0,STARLINK-5595,PAYLOAD,2023-06-01 00:28:40,15.69921672,0.0003386,69.9985,264.2383,269.4912,90.5895,-5.546e-06,-8.8e-06,0.0,0 STARLINK-5595,1 55765U 23028AA  23152.01991238 -.00000880  00000-0 -55460-5 0  9992,2 55765  69.9985 264.2383 0003386 269.4912  90.5895 15.69921672 14679,6737.258,91.724,361.404,356.842,0.0
55765.0,STARLINK-5595,PAYLOAD,2023-06-01 11:10:55,15.69922789,0.0003771,69.9983,262.9844,267.1657,92.9107,6.3444e-06,5.5e-06,0.0,0 STARLINK-5595,1 55765U 23028AA  23152.46592480  .00000550  00000-0  63444-5 0  9990,2 55765  69.9983 262.9844 0003771 267.1657  92.9107 15.69922789 14754,6737.255,91.724,361.661,356.579,0.0
55765.0,STARLINK-5595,PAYLOAD,2023-06-02 10:07:13,15.69921468,0.0003928,69.9981,260.297,270.5192,89.5554,-1.2362e-06,-3.62e-06,0.0,0 STARLINK-5595,1 55765U 23028AA  23153.42167993 -.00000362  00000-0 -12362-5 0  9990,2 55765  69.9981 260.2970 0003928 270.5192  89.5554 15.69921468 14895,6737.259,91.724,361.77,356.477,0.0
55765.0,STARLINK-5595,PAYLOAD,2023-06-02 16:14:12,15.69932086,0.0003902,69.998,259.5808,267.6958,92.3791,9.0497e-06,8.76e-06,0.0,0 STARLINK-5595,1 55765U 23028AA  23153.67653780  .00000876  00000-0  90497-5 0  9994,2 55765  69.9980 259.5808 0003902 267.6958  92.3791 15.69932086 14932,6737.228,91.724,361.722,356.464,0.0
55765.0,STARLINK-5595,PAYLOAD,2023-06-03 06:00:00,15.69908662,0.0003717,70.0013,257.9674,267.144,93.0238,0.00043086,0.00051886,0.0,0 STARLINK-5595,1 55765U 23028AA  23154.25001157  .00051886  00000-0  43086-3 0  9991,2 55765  70.0013 257.9674 0003717 267.1440  93.0238 15.69908662 15028,6737.295,91.725,361.665,356.656,0.0
55765.0,STARLINK-5595,PAYLOAD,2023-06-03 10:35:15,15.699206,0.0003699,69.9981,257.4303,270.1733,89.9039,3.1051e-07,-1.76e-06,0.0,0 STARLINK-5595,1 55765U 23028AA  23154.44114793 -.00000176  00000-0  31051-6 0  9992,2 55765  69.9981 257.4303 0003699 270.1733  89.9039 15.69920600 15053,6737.261,91.724,361.618,356.634,0.0
55765.0,STARLINK-5595,PAYLOAD,2023-06-03 16:42:15,15.69924448,0.0003583,69.9979,256.713,276.8774,83.2014,4.1248e-06,2.83e-06,0.0,0 STARLINK-5595,1 55765U 23028AA  23154.69601278  .00000283  00000-0  41248-5 0  9994,2 55765  69.9979 256.7130 0003583 276.8774  83.2014 15.69924448 15100,6737.25,91.724,361.529,356.701,0.0
55765.0,STARLINK-5595,PAYLOAD,2023-06-04 00:21:03,15.69896556,0.000328,69.9998,255.8209,287.7122,72.3716,-1.0238e-05,-1.442e-05,0.0,0 STARLINK-5595,1 55765U 23028AA  23155.01462099 -.00001442  00000-0 -10238-4 0  9991,2 55765  69.9998 255.8209 0003280 287.7122  72.3716 15.69896556 15140,6737.33,91.726,361.405,356.985,0.0
55765.0,STARLINK-5595,PAYLOAD,2023-06-04 09:32:04,15.69473725,0.0006377,69.9971,254.7461,298.0429,62.0121,-0.00050159,-0.00059053,0.0,0 STARLINK-5595,1 55765U 23028AA  23155.39727999 -.00059053  00000-0 -50159-3 0  9991,2 55765  69.9971 254.7461 0006377 298.0429  62.0121 15.69473725 15206,6738.54,91.751,364.702,356.108,0.0
55765.0,STARLINK-5595,PAYLOAD,2023-06-04 22:00:00,15.67911484,0.0003174,70.0005,253.2869,275.6997,137.5576,-0.0086956,-0.00868189,0.0,0 STARLINK-5595,1 55765U 23028AA  23155.91667824 -.00868189  00000-0 -86956-2 0  9990,2 55765  70.0005 253.2869 0003174 275.6997 137.5576 15.67911484 15283,6743.015,91.842,367.021,362.74,0.0
55765.0,STARLINK-5595,PAYLOAD,2023-06-05 06:00:00,15.67080898,0.0003235,70.0007,252.3534,269.5319,224.2927,-2.3796e-06,-4.59e-06,0.0,0 STARLINK-5595,1 55765U 23028AA  23156.25001157 -.00000459  00000-0 -23796-5 0  9993,2 55765  70.0007 252.3534 0003235 269.5319 224.2927 15.67080898 15338,6745.398,91.891,369.445,365.081,0.0
55765.0,STARLINK-5595,PAYLOAD,2023-06-05 14:00:01,15.66615513,0.0003307,70.0006,251.4208,274.2863,299.3729,-0.0091077,-0.00863113,0.0,0 STARLINK-5595,1 55765U 23028AA  23156.58335648 -.00863113  00000-0 -91077-2 0  9992,2 55765  70.0006 251.4208 0003307 274.2863 299.3729 15.66615513 15387,6746.734,91.918,370.83,366.367,0.0
55765.0,STARLINK-5595,PAYLOAD,2023-06-06 00:00:00,15.65795442,0.0003418,70.0002,250.2555,269.9584,132.2648,-0.0093534,-0.00858081,0.0,0 STARLINK-5595,1 55765U 23028AA  23157.00001157 -.00858081  00000-0 -93534-2 0  9993,2 55765  70.0002 250.2555 0003418 269.9584 132.2648 15.65795442  1300,6749.089,91.966,373.261,368.647,0.0
55765.0,STARLINK-5595,PAYLOAD,2023-06-06 06:00:00,15.65356637,0.0003475,70.0001,249.5574,267.3538,103.439,-0.01033,-0.00938125,0.0,0 STARLINK-5595,1 55765U 23028AA  23157.25001157 -.00938125  00000-0 -10330-1 0  9990,2 55765  70.0001 249.5574 0003475 267.3538 103.4390 15.65356637 15493,6750.35,91.992,374.561,369.87,0.0
55765.0,STARLINK-5595,PAYLOAD,2023-06-06 14:00:01,15.64662133,0.0003362,70.0001,248.6271,275.1136,173.1322,-0.0098949,-0.00879333,0.0,0 STARLINK-5595,1 55765U 23028AA  23157.58334491 -.00879333  00000-0 -98949-2 0  9994,2 55765  70.0001 248.6271 0003362 275.1136 173.1322 15.64662133  1307,6752.348,92.033,376.483,371.942,0.0
55765.0,STARLINK-5595,PAYLOAD,2023-06-06 20:00:01,15.64219647,0.0003418,69.9997,247.9299,275.4777,140.3168,-0.011105,-0.009614,0.0,0 STARLINK-5595,1 55765U 23028AA  23157.83334491 -.00961400  00000-0 -11105-1 0  9997,2 55765  69.9997 247.9299 0003418 275.4777 140.3168 15.64219647  1308,6753.621,92.059,377.794,373.178,0.0
55765.0,STARLINK-5595,PAYLOAD,2023-06-07 14:00:01,15.62702086,0.0003655,69.9995,245.8421,273.5715,42.2884,-0.010648,-0.00876139,0.0,0 STARLINK-5595,1 55765U 23028AA  23158.58334491 -.00876139  00000-0 -10648-1 0  9995,2 55765  69.9995 245.8421 0003655 273.5715  42.2884 15.62702086 15700,6757.993,92.148,382.328,377.388,0.0
55765.0,STARLINK-5595,PAYLOAD,2023-06-07 22:00:00,15.62066201,0.0003664,69.9991,244.9152,271.1757,118.9845,-0.011362,-0.00908819,0.0,0 STARLINK-5595,1 55765U 23028AA  23158.91667824 -.00908819  00000-0 -11362-1 0  9996,2 55765  69.9991 244.9152 0003664 271.1757 118.9845 15.62066201  1308,6759.827,92.186,384.168,379.215,0.0
55765.0,STARLINK-5595,PAYLOAD,2023-06-08 06:00:00,15.61444516,0.0003539,69.9994,243.9893,267.9651,195.7055,-0.012074,-0.00939586,0.0,0 STARLINK-5595,1 55765U 23028AA  23159.25001157 -.00939586  00000-0 -12074-1 0  9991,2 55765  69.9994 243.9893 0003539 267.9651 195.7055 15.61444516 15803,6761.621,92.222,385.879,381.093,0.0
55765.0,STARLINK-5595,PAYLOAD,2023-06-08 14:00:01,15.60740992,0.0003486,69.9993,243.0643,274.3995,262.0332,-0.011385,-0.00868633,0.0,0 STARLINK-5595,1 55765U 23028AA  23159.58334491 -.00868633  00000-0 -11385-1 0  9995,2 55765  69.9993 243.0643 0003486 274.3995 262.0332 15.60740992  1302,6763.652,92.264,387.875,383.16,0.0
55765.0,STARLINK-5595,PAYLOAD,2023-06-08 22:00:00,15.60117555,0.0003445,69.9991,242.1404,269.9595,338.4237,-0.012488,-0.00924696,0.0,0 STARLINK-5595,1 55765U 23028AA  23159.91667824 -.00924696  00000-0 -12488-1 0  9998,2 55765  69.9991 242.1404 0003445 269.9595 338.4237 15.60117555  1301,6765.454,92.301,389.65,384.989,0.0
55765.0,STARLINK-5595,PAYLOAD,2023-06-09 12:20:46,15.60621825,0.0003879,69.9967,240.4893,259.2359,100.8396,-0.0032586,-0.00262368,0.0,0 STARLINK-5595,1 55765U 23028AA  23160.51442464 -.00262368  00000-0 -32586-2 0  9990,2 55765  69.9967 240.4893 0003879 259.2359 100.8396 15.60621825 16019,6763.997,92.271,388.486,383.238,0.0
55765.0,STARLINK-5595,PAYLOAD,2023-06-09 14:00:01,15.58784411,0.0003562,69.999,240.2952,276.5955,113.3652,-0.012211,-0.00864822,0.0,0 STARLINK-5595,1 55765U 23028AA  23160.58334491 -.00864822  00000-0 -12211-1 0  9992,2 55765  69.9990 240.2952 0003562 276.5955 113.3652 15.58784411 16014,6769.311,92.38,393.587,388.765,0.0
55765.0,STARLINK-5595,PAYLOAD,2023-06-09 22:00:00,15.58149724,0.0003414,69.9988,239.3737,273.0656,186.5054,-0.01316,-0.00905883,0.0,0 STARLINK-5595,1 55765U 23028AA  23160.91667824 -.00905883  00000-0 -13160-1 0  9995,2 55765  69.9988 239.3737 0003414 273.0656 186.5054 15.58149724  1303,6771.149,92.417,395.326,390.703,0.0
55765.0,STARLINK-5595,PAYLOAD,2023-06-10 06:00:02,15.57539423,0.0003291,69.9994,238.4533,267.2219,261.2267,-0.014311,-0.00957362,0.0,0 STARLINK-5595,1 55765U 23028AA  23161.25002315 -.00957362  00000-0 -14311-1 0  9999,2 55765  69.9994 238.4533 0003291 267.2219 261.2267 15.57539423 16117,6772.918,92.454,397.012,392.554,0.0
55765.0,STARLINK-5595,PAYLOAD,2023-06-10 14:00:01,15.56831283,0.0003254,69.9994,237.5337,272.3832,324.067,-0.0132,-0.00868133,0.0,0 STARLINK-5595,1 55765U 23028AA  23161.58334491 -.00868133  00000-0 -13200-1 0  9991,2 55765  69.9994 237.5337 0003254 272.3832 324.0670 15.56831283  1305,6774.972,92.496,399.041,394.632,0.0
55765.0,STARLINK-5595,PAYLOAD,2023-06-10 22:00:00,15.56185426,0.0003296,69.9991,236.615,269.3135,34.405,-0.013984,-0.00895224,0.0,0 STARLINK-5595,1 55765U 23028AA  23161.91667824 -.00895224  00000-0 -13984-1 0  9997,2 55765  69.9991 236.6150 0003296 269.3135  34.4050 15.56185426 16225,6776.846,92.534,400.945,396.477,0.0
55765.0,STARLINK-5595,PAYLOAD,2023-06-11 14:00:01,15.54883063,0.0003286,69.9993,234.7804,276.6552,159.2416,-0.014436,-0.00881912,0.0,0 STARLINK-5595,1 55765U 23028AA  23162.58334491 -.00881912  00000-0 -14436-1 0  9994,2 55765  69.9993 234.7804 0003286 276.6552 159.2416 15.54883063  1300,6780.63,92.611,404.723,400.266,0.0
